METHANESAT              
1 59101U 24043D   25162.82998938  .00002469  00000+0  22893-3 0  9998
2 59101  97.8006 288.9234 0011627 159.2818 200.8876 14.95339225 69251
